ONEWEB-0012             
1 44057U 19010A   25339.84091383 -.00000076  00000+0 -23277-3 0  9997
2 44057  87.9033 267.2917 0001873  88.6517 271.4829 13.16595083326128
ONEWEB-0010             
1 44058U 19010B   25339.79024571  .00000057  00000+0  11562-3 0  9998
2 44058  87.9037 267.2909 0001996  66.4671 293.6670 13.16595564326163
ONEWEB-0008             
1 44059U 19010C   25339.81558267  .00000052  00000+0  10363-3 0  9999
2 44059  87.9040 267.2829 0001523  75.2274 284.9026 13.16595955326287
ONEWEB-0007             
1 44060U 19010D   25339.92525546 -.00000074  00000+0 -23021-3 0  9998
2 44060  87.8982 297.7911 0002174  82.3396 277.7982 13.15546812325962
ONEWEB-0006             
1 44061U 19010E   25339.92920085  .00000001  00000+0 -30578-4 0  9991
2 44061  87.8989 297.7363 0002003  77.3805 282.7549 13.15545903326013
ONEWEB-0011             
1 44062U 19010F   25339.89753835  .00000019  00000+0  15536-4 0  9990
2 44062  87.8988 297.7521 0001696  75.0088 285.1230 13.15547721326007
ONEWEB-0013             
1 45131U 20008A   25339.84942387  .00000741  00000+0  21144-2 0  9996
2 45131  87.8505  91.8731 0002217 125.2739 234.8595 13.09437725280769
ONEWEB-0017             
1 45132U 20008B   25339.81524342  .00000106  00000+0  26686-3 0  9993
2 45132  87.8805  74.8229 0001596  95.5294 264.6015 13.10368539282623
